{"type": "FeatureCollection", "features": [ {"type": "Feature", "properties": {"norad_id": 51444, "name": "CSG-2", "group": "resource", "lat": -5.173109609611315, "lon": 168.53032907072284, "alt_km": 626.1130254039517, "timestamp": "2025-12-12T11:38:31.074074+00:00", "meta": {"OBJECT_NAME": "CSG-2", "OBJECT_ID": "2022-008A", "EPOCH": "2025-12-12T05:11:04.195392", "MEAN_MOTION": 14.82164616, "ECCENTRICITY": 0.0001539, "INCLINATION": 97.8808, "RA_OF_ASC_NODE": 167.5469, "ARG_OF_PERICENTER": 82.6624, "MEAN_ANOMALY": 277.4764, "EPHEMERIS_TYPE": 0, "CLASSIFICATION_TYPE": "U", "NORAD_CAT_ID": 51444, "ELEMENT_SET_NO": 999, "REV_AT_EPOCH": 20889, "BSTAR": 0.0001621, "MEAN_MOTION_DOT": 1.239e-05, "MEAN_MOTION_DDOT": 0}, "tle": {"line1": "1 51444U 22008A   25346.21602078  .00001239  00000+0  16210-3 0  9993", "line2": "2 51444  97.8808 167.5469 0001539  82.6624 277.4764 14.82164616208897"}}, "geometry": {"type": "Point", "coordinates": [168.53032907072284, -5.173109609611315]}}, {"type": "Feature", "properties": {"norad_id": 52912, "name": "GAOFEN-12 03", "group": "resource", "lat": -81.29544126201496, "lon": -61.890674589192756, "alt_km": 639.2179683361464, "timestamp": "2025-12-12T11:38:31.074084+00:00", "meta": {"OBJECT_NAME": "GAOFEN-12 03", "OBJECT_ID": "2022-069A", "EPOCH": "2025-12-12T05:32:20.859072", "MEAN_MOTION": 14.79607899, "ECCENTRICITY": 0.0002195, "INCLINATION": 97.8476, "RA_OF_ASC_NODE": 233.5915, "ARG_OF_PERICENTER": 62.4981, "MEAN_ANOMALY": 297.6454, "EPHEMERIS_TYPE": 0, "CLASSIFICATION_TYPE": "U", "NORAD_CAT_ID": 52912, "ELEMENT_SET_NO": 999, "REV_AT_EPOCH": 18696, "BSTAR": 0.0003001, "MEAN_MOTION_DOT": 2.198e-05, "MEAN_MOTION_DDOT": 0}, "tle": {"line1": "1 52912U 22069A   25346.23079698  .00002198  00000+0  30010-3 0  9998", "line2": "2 52912  97.8476 233.5915 0002195  62.4981 297.6454 14.79607899186964"}}, "geometry": {"type": "Point", "coordinates": [-61.890674589192756, -81.29544126201496]}}, {"type": "Feature", "properties": {"norad_id": 54754, "name": "SWOT", "group": "resource", "lat": -37.06022368879106, "lon": -82.22180336304558, "alt_km": 899.5620289055132, "timestamp": "2025-12-12T11:38:31.074094+00:00", "meta": {"OBJECT_NAME": "SWOT", "OBJECT_ID": "2022-173A", "EPOCH": "2025-12-12T03:14:56.666112", "MEAN_MOTION": 14.00174564, "ECCENTRICITY": 3.38e-05, "INCLINATION": 77.6106, "RA_OF_ASC_NODE": 287.8054, "ARG_OF_PERICENTER": 112.7607, "MEAN_ANOMALY": 247.3581, "EPHEMERIS_TYPE": 0, "CLASSIFICATION_TYPE": "U", "NORAD_CAT_ID": 54754, "ELEMENT_SET_NO": 999, "REV_AT_EPOCH": 15297, "BSTAR": 5.0213e-05, "MEAN_MOTION_DOT": 7.2e-07, "MEAN_MOTION_DDOT": 0}, "tle": {"line1": "1 54754U 22173A   25346.13537808  .00000072  00000+0  50213-4 0  9998", "line2": "2 54754  77.6106 287.8054 0000338 112.7607 247.3581 14.00174564152972"}}, "geometry": {"type": "Point", "coordinates": [-82.22180336304558, -37.06022368879106]}}, {"type": "Feature", "properties": {"norad_id": 57654, "name": "GAOFEN-12 04", "group": "resource", "lat": 79.63554204023797, "lon": -147.24815123542314, "alt_km": 621.9732996649491, "timestamp": "2025-12-12T11:38:31.074104+00:00", "meta": {"OBJECT_NAME": "GAOFEN-12 04", "OBJECT_ID": "2023-123A", "EPOCH": "2025-12-12T04:46:31.057248", "MEAN_MOTION": 14.79698316, "ECCENTRICITY": 0.0001338, "INCLINATION": 97.9116, "RA_OF_ASC_NODE": 261.9645, "ARG_OF_PERICENTER": 74.4456, "MEAN_ANOMALY": 285.6904, "EPHEMERIS_TYPE": 0, "CLASSIFICATION_TYPE": "U", "NORAD_CAT_ID": 57654, "ELEMENT_SET_NO": 999, "REV_AT_EPOCH": 12497, "BSTAR": 0.00033158, "MEAN_MOTION_DOT": 2.439e-05, "MEAN_MOTION_DDOT": 0}, "tle": {"line1": "1 57654U 23123A   25346.19897057  .00002439  00000+0  33158-3 0  9994", "line2": "2 57654  97.9116 261.9645 0001338  74.4456 285.6904 14.79698316124971"}}, "geometry": {"type": "Point", "coordinates": [-147.24815123542314, 79.63554204023797]}}, {"type": "Feature", "properties": {"norad_id": 59065, "name": "PARS 1", "group": "resource", "lat": 62.79555278042743, "lon": -57.363541624190574, "alt_km": 428.6924235590868, "timestamp": "2025-12-12T11:38:31.074114+00:00", "meta": {"OBJECT_NAME": "PARS 1", "OBJECT_ID": "2024-039Q", "EPOCH": "2025-12-12T05:07:58.108800", "MEAN_MOTION": 15.40955164, "ECCENTRICITY": 0.0012594, "INCLINATION": 97.4636, "RA_OF_ASC_NODE": 317.1356, "ARG_OF_PERICENTER": 73.9519, "MEAN_ANOMALY": 286.3114, "EPHEMERIS_TYPE": 0, "CLASSIFICATION_TYPE": "U", "NORAD_CAT_ID": 59065, "ELEMENT_SET_NO": 999, "REV_AT_EPOCH": 9980, "BSTAR": 0.00041642, "MEAN_MOTION_DOT": 0.00017122, "MEAN_MOTION_DDOT": 0}, "tle": {"line1": "1 59065U 24039Q   25346.21386700  .00017122  00000+0  41642-3 0  9992", "line2": "2 59065  97.4636 317.1356 0012594  73.9519 286.3114 15.40955164 99804"}}, "geometry": {"type": "Point", "coordinates": [-57.363541624190574, 62.79555278042743]}}, {"type": "Feature", "properties": {"norad_id": 59371, "name": "RESURS-P 4", "group": "resource", "lat": -33.85838713396511, "lon": 107.91796210201646, "alt_km": 476.8989440701698, "timestamp": "2025-12-12T11:38:31.074124+00:00", "meta": {"OBJECT_NAME": "RESURS-P 4", "OBJECT_ID": "2024-061A", "EPOCH": "2025-12-12T04:26:25.703808", "MEAN_MOTION": 15.32078394, "ECCENTRICITY": 0.000155, "INCLINATION": 97.254, "RA_OF_ASC_NODE": 292.5265, "ARG_OF_PERICENTER": 52.4602, "MEAN_ANOMALY": 307.6781, "EPHEMERIS_TYPE": 0, "CLASSIFICATION_TYPE": "U", "NORAD_CAT_ID": 59371, "ELEMENT_SET_NO": 999, "REV_AT_EPOCH": 9512, "BSTAR": 0.00020065, "MEAN_MOTION_DOT": 6.138e-05, "MEAN_MOTION_DDOT": 0}, "tle": {"line1": "1 59371U 24061A   25346.18501972  .00006138  00000+0  20065-3 0  9994", "line2": "2 59371  97.2540 292.5265 0001550  52.4602 307.6781 15.32078394 95126"}}, "geometry": {"type": "Point", "coordinates": [107.91796210201646, -33.85838713396511]}}, {"type": "Feature", "properties": {"norad_id": 59625, "name": "LEGION 1", "group": "resource", "lat": 81.74469283943314, "lon": -53.28261248855377, "alt_km": 510.93467461494674, "timestamp": "2025-12-12T11:38:31.074134+00:00", "meta": {"OBJECT_NAME": "LEGION 1", "OBJECT_ID": "2024-081A", "EPOCH": "2025-12-12T03:18:48.841056", "MEAN_MOTION": 15.16471729, "ECCENTRICITY": 0.0003978, "INCLINATION": 97.5212, "RA_OF_ASC_NODE": 60.7812, "ARG_OF_PERICENTER": 321.2916, "MEAN_ANOMALY": 38.8031, "EPHEMERIS_TYPE": 0, "CLASSIFICATION_TYPE": "U", "NORAD_CAT_ID": 59625, "ELEMENT_SET_NO": 999, "REV_AT_EPOCH": 8918, "BSTAR": 0.00039706, "MEAN_MOTION_DOT": 7.665e-05, "MEAN_MOTION_DDOT": 0}, "tle": {"line1": "1 59625U 24081A   25346.13806529  .00007665  00000+0  39706-3 0  9997", "line2": "2 59625  97.5212  60.7812 0003978 321.2916  38.8031 15.16471729 89182"}}, "geometry": {"type": "Point", "coordinates": [-53.28261248855377, 81.74469283943314]}}, {"type": "Feature", "properties": {"norad_id": 59626, "name": "LEGION 2", "group": "resource", "lat": -81.87335696552039, "lon": 128.91980600916222, "alt_km": 520.1286163587856, "timestamp": "2025-12-12T11:38:31.074144+00:00", "meta": {"OBJECT_NAME": "LEGION 2", "OBJECT_ID": "2024-081B", "EPOCH": "2025-12-12T04:06:23.128128", "MEAN_MOTION": 15.16482945, "ECCENTRICITY": 0.0005775, "INCLINATION": 97.5213, "RA_OF_ASC_NODE": 60.9014, "ARG_OF_PERICENTER": 295.8229, "MEAN_ANOMALY": 64.2407, "EPHEMERIS_TYPE": 0, "CLASSIFICATION_TYPE": "U", "NORAD_CAT_ID": 59626, "ELEMENT_SET_NO": 999, "REV_AT_EPOCH": 8919, "BSTAR": 0.00042868, "MEAN_MOTION_DOT": 8.286e-05, "MEAN_MOTION_DDOT": 0}, "tle": {"line1": "1 59626U 24081B   25346.17110102  .00008286  00000+0  42868-3 0  9990", "line2": "2 59626  97.5213  60.9014 0005775 295.8229  64.2407 15.16482945 89193"}}, "geometry": {"type": "Point", "coordinates": [128.91980600916222, -81.87335696552039]}}, {"type": "Feature", "properties": {"norad_id": 60182, "name": "ALOS-4 (DAICHI-4)", "group": "resource", "lat": -35.49188720207873, "lon": 87.03440617722711, "alt_km": 637.9125353422742, "timestamp": "2025-12-12T11:38:31.074154+00:00", "meta": {"OBJECT_NAME": "ALOS-4 (DAICHI-4)", "OBJECT_ID": "2024-123A", "EPOCH": "2025-12-10T20:50:51.532800", "MEAN_MOTION": 14.79478132, "ECCENTRICITY": 0.0001419, "INCLINATION": 97.9225, "RA_OF_ASC_NODE": 79.7424, "ARG_OF_PERICENTER": 101.2045, "MEAN_ANOMALY": 258.9326, "EPHEMERIS_TYPE": 0, "CLASSIFICATION_TYPE": "U", "NORAD_CAT_ID": 60182, "ELEMENT_SET_NO": 999, "REV_AT_EPOCH": 7803, "BSTAR": 0.00039567, "MEAN_MOTION_DOT": 2.905e-05, "MEAN_MOTION_DDOT": 0}, "tle": {"line1": "1 60182U 24123A   25344.86865200  .00002905  00000+0  39567-3 0  9990", "line2": "2 60182  97.9225  79.7424 0001419 101.2045 258.9326 14.79478132 78033"}}, "geometry": {"type": "Point", "coordinates": [87.03440617722711, -35.49188720207873]}}, {"type": "Feature", "properties": {"norad_id": 60452, "name": "LEGION 3", "group": "resource", "lat": -27.103643228534217, "lon": -79.3085069915952, "alt_km": 526.9005169076063, "timestamp": "2025-12-12T11:38:31.074164+00:00", "meta": {"OBJECT_NAME": "LEGION 3", "OBJECT_ID": "2024-146A", "EPOCH": "2025-12-12T02:19:42.411360", "MEAN_MOTION": 15.15750179, "ECCENTRICITY": 0.0014807, "INCLINATION": 45.0017, "RA_OF_ASC_NODE": 313.5787, "ARG_OF_PERICENTER": 195.2439, "MEAN_ANOMALY": 164.7995, "EPHEMERIS_TYPE": 0, "CLASSIFICATION_TYPE": "U", "NORAD_CAT_ID": 60452, "ELEMENT_SET_NO": 999, "REV_AT_EPOCH": 7363, "BSTAR": 0.00041637, "MEAN_MOTION_DOT": 7.839e-05, "MEAN_MOTION_DDOT": 0}, "tle": {"line1": "1 60452U 24146A   25346.09701865  .00007839  00000+0  41637-3 0  9990", "line2": "2 60452  45.0017 313.5787 0014807 195.2439 164.7995 15.15750179 73634"}}, "geometry": {"type": "Point", "coordinates": [-79.3085069915952, -27.103643228534217]}}]}